{"type": "FeatureCollection", "features": [{"type": "Feature", "properties": {"norad_id": 24876, "name": "GPS BIIR-2  (PRN 13)", "group": "gps-ops", "lat": 5.621932862311771, "lon": 109.62107484038138, "alt_km": 20015.77905496656, "timestamp": "2025-12-14T05:42:18.718172+00:00", "meta": {"OBJECT_NAME": "GPS BIIR-2  (PRN 13)", "OBJECT_ID": "1997-035A", "EPOCH": "2025-12-12T17:35:03.459552", "MEAN_MOTION": 2.00563636, "ECCENTRICITY": 0.00967745, "INCLINATION": 55.8952, "RA_OF_ASC_NODE": 105.8691, "ARG_OF_PERICENTER": 56.9985, "MEAN_ANOMALY": 303.9066, "EPHEMERIS_TYPE": 0, "CLASSIFICATION_TYPE": "U", "NORAD_CAT_ID": 24876, "ELEMENT_SET_NO": 999, "REV_AT_EPOCH": 20821, "BSTAR": 0, "MEAN_MOTION_DOT": 1e-07, "MEAN_MOTION_DDOT": 0}, "tle": {"line1": "1 24876U 97035A   25346.73267893  .00000010  00000+0  00000+0 0  9995", "line2": "2 24876  55.8952 105.8691 0096774  56.9985 303.9066  2.00563636208219"}}, "geometry": {"type": "Point", "coordinates": [109.62107484038138, 5.621932862311771]}}, {"type": "Feature", "properties": {"norad_id": 26360, "name": "GPS BIIR-4  (PRN 20)", "group": "gps-ops", "lat": 53.98424958220813, "lon": 132.72596610022822, "alt_km": 20257.745521962872, "timestamp": "2025-12-14T05:42:18.718216+00:00", "meta": {"OBJECT_NAME": "GPS BIIR-4  (PRN 20)", "OBJECT_ID": "2000-025A", "EPOCH": "2025-12-13T02:44:33.459360", "MEAN_MOTION": 2.00567712, "ECCENTRICITY": 0.00388747, "INCLINATION": 55.0454, "RA_OF_ASC_NODE": 26.8226, "ARG_OF_PERICENTER": 242.031, "MEAN_ANOMALY": 126.3548, "EPHEMERIS_TYPE": 0, "CLASSIFICATION_TYPE": "U", "NORAD_CAT_ID": 26360, "ELEMENT_SET_NO": 999, "REV_AT_EPOCH": 18754, "BSTAR": 0, "MEAN_MOTION_DOT": -9.9e-07, "MEAN_MOTION_DDOT": 0}, "tle": {"line1": "1 26360U 00025A   25347.11427615 -.00000099  00000+0  00000+0 0  9999", "line2": "2 26360  55.0454  26.8226 0038874 242.0310 126.3548  2.00567712187544"}}, "geometry": {"type": "Point", "coordinates": [132.72596610022822, 53.98424958220813]}}, {"type": "Feature", "properties": {"norad_id": 26407, "name": "GPS BIIR-5  (PRN 22)", "group": "gps-ops", "lat": -45.65265436829239, "lon": 176.5324724810643, "alt_km": 19853.259964164172, "timestamp": "2025-12-14T05:42:18.718235+00:00", "meta": {"OBJECT_NAME": "GPS BIIR-5  (PRN 22)", "OBJECT_ID": "2000-040A", "EPOCH": "2025-12-13T01:34:44.094432", "MEAN_MOTION": 2.00567991, "ECCENTRICITY": 0.01259938, "INCLINATION": 54.8907, "RA_OF_ASC_NODE": 222.556, "ARG_OF_PERICENTER": 301.8176, "MEAN_ANOMALY": 231.1647, "EPHEMERIS_TYPE": 0, "CLASSIFICATION_TYPE": "U", "NORAD_CAT_ID": 26407, "ELEMENT_SET_NO": 999, "REV_AT_EPOCH": 18621, "BSTAR": 0, "MEAN_MOTION_DOT": 1.8e-07, "MEAN_MOTION_DDOT": 0}, "tle": {"line1": "1 26407U 00040A   25347.06578813  .00000018  00000+0  00000+0 0  9999", "line2": "2 26407  54.8907 222.5560 0125993 301.8176 231.1647  2.00567991186212"}}, "geometry": {"type": "Point", "coordinates": [176.5324724810643, -45.65265436829239]}}, {"type": "Feature", "properties": {"norad_id": 27663, "name": "GPS BIIR-8  (PRN 16)", "group": "gps-ops", "lat": 52.47750630093026, "lon": -71.57416903801631, "alt_km": 19816.065226304276, "timestamp": "2025-12-14T05:42:18.718250+00:00", "meta": {"OBJECT_NAME": "GPS BIIR-8  (PRN 16)", "OBJECT_ID": "2003-005A", "EPOCH": "2025-12-13T09:15:26.891424", "MEAN_MOTION": 2.00570905, "ECCENTRICITY": 0.01474873, "INCLINATION": 54.9232, "RA_OF_ASC_NODE": 222.3526, "ARG_OF_PERICENTER": 51.8083, "MEAN_ANOMALY": 128.0829, "EPHEMERIS_TYPE": 0, "CLASSIFICATION_TYPE": "U", "NORAD_CAT_ID": 27663, "ELEMENT_SET_NO": 999, "REV_AT_EPOCH": 16758, "BSTAR": 0, "MEAN_MOTION_DOT": 2.3e-07, "MEAN_MOTION_DDOT": 0}, "tle": {"line1": "1 27663U 03005A   25347.38572791  .00000023  00000+0  00000+0 0  9998", "line2": "2 27663  54.9232 222.3526 0147487  51.8083 128.0829  2.00570905167584"}}, "geometry": {"type": "Point", "coordinates": [-71.57416903801631, 52.47750630093026]}}, {"type": "Feature", "properties": {"norad_id": 28190, "name": "GPS BIIR-11 (PRN 19)", "group": "gps-ops", "lat": -42.11270208535169, "lon": 142.41288524462792, "alt_km": 20073.60980431296, "timestamp": "2025-12-14T05:42:18.718264+00:00", "meta": {"OBJECT_NAME": "GPS BIIR-11 (PRN 19)", "OBJECT_ID": "2004-009A", "EPOCH": "2025-12-11T22:20:18.324960", "MEAN_MOTION": 2.00560799, "ECCENTRICITY": 0.0108335, "INCLINATION": 54.9863, "RA_OF_ASC_NODE": 283.2515, "ARG_OF_PERICENTER": 167.6362, "MEAN_ANOMALY": 200.4215, "EPHEMERIS_TYPE": 0, "CLASSIFICATION_TYPE": "U", "NORAD_CAT_ID": 28190, "ELEMENT_SET_NO": 999, "REV_AT_EPOCH": 15919, "BSTAR": 0, "MEAN_MOTION_DOT": -7.6e-07, "MEAN_MOTION_DDOT": 0}, "tle": {"line1": "1 28190U 04009A   25345.93076765 -.00000076  00000+0  00000+0 0  9997", "line2": "2 28190  54.9863 283.2515 0108335 167.6362 200.4215  2.00560799159191"}}, "geometry": {"type": "Point", "coordinates": [142.41288524462792, -42.11270208535169]}}, {"type": "Feature", "properties": {"norad_id": 28474, "name": "GPS BIIR-13 (PRN 02)", "group": "gps-ops", "lat": -48.92473360153157, "lon": -80.47164316278689, "alt_km": 19749.75038923829, "timestamp": "2025-12-14T05:42:18.718277+00:00", "meta": {"OBJECT_NAME": "GPS BIIR-13 (PRN 02)", "OBJECT_ID": "2004-045A", "EPOCH": "2025-12-12T12:01:27.782400", "MEAN_MOTION": 2.00569519, "ECCENTRICITY": 0.0170757, "INCLINATION": 55.2408, "RA_OF_ASC_NODE": 332.4152, "ARG_OF_PERICENTER": 309.2412, "MEAN_ANOMALY": 170.6572, "EPHEMERIS_TYPE": 0, "CLASSIFICATION_TYPE": "U", "NORAD_CAT_ID": 28474, "ELEMENT_SET_NO": 999, "REV_AT_EPOCH": 15468, "BSTAR": 0, "MEAN_MOTION_DOT": -8.8e-07, "MEAN_MOTION_DDOT": 0}, "tle": {"line1": "1 28474U 04045A   25346.50101600 -.00000088  00000+0  00000+0 0  9996", "line2": "2 28474  55.2408 332.4152 0170757 309.2412 170.6572  2.00569519154688"}}, "geometry": {"type": "Point", "coordinates": [-80.47164316278689, -48.92473360153157]}}, {"type": "Feature", "properties": {"norad_id": 28874, "name": "GPS BIIRM-1 (PRN 17)", "group": "gps-ops", "lat": -51.16934976364826, "lon": 160.9005161481908, "alt_km": 19923.347282994986, "timestamp": "2025-12-14T05:42:18.718289+00:00", "meta": {"OBJECT_NAME": "GPS BIIRM-1 (PRN 17)", "OBJECT_ID": "2005-038A", "EPOCH": "2025-12-10T14:00:21.521088", "MEAN_MOTION": 2.00578486, "ECCENTRICITY": 0.0131701, "INCLINATION": 55.0338, "RA_OF_ASC_NODE": 280.7877, "ARG_OF_PERICENTER": 293.4518, "MEAN_ANOMALY": 200.7371, "EPHEMERIS_TYPE": 0, "CLASSIFICATION_TYPE": "U", "NORAD_CAT_ID": 28874, "ELEMENT_SET_NO": 999, "REV_AT_EPOCH": 14805, "BSTAR": 0, "MEAN_MOTION_DOT": -6.4e-07, "MEAN_MOTION_DDOT": 0}, "tle": {"line1": "1 28874U 05038A   25344.58358242 -.00000064  00000+0  00000+0 0  9999", "line2": "2 28874  55.0338 280.7877 0131701 293.4518 200.7371  2.00578486148057"}}, "geometry": {"type": "Point", "coordinates": [160.9005161481908, -51.16934976364826]}}, {"type": "Feature", "properties": {"norad_id": 29486, "name": "GPS BIIRM-2 (PRN 31)", "group": "gps-ops", "lat": 18.52174968136773, "lon": -35.06351498446069, "alt_km": 20251.9657254225, "timestamp": "2025-12-14T05:42:18.718302+00:00", "meta": {"OBJECT_NAME": "GPS BIIRM-2 (PRN 31)", "OBJECT_ID": "2006-042A", "EPOCH": "2025-12-13T12:57:38.926368", "MEAN_MOTION": 2.00554149, "ECCENTRICITY": 0.01073458, "INCLINATION": 54.6942, "RA_OF_ASC_NODE": 158.7089, "ARG_OF_PERICENTER": 51.9789, "MEAN_ANOMALY": 320.1395, "EPHEMERIS_TYPE": 0, "CLASSIFICATION_TYPE": "U", "NORAD_CAT_ID": 29486, "ELEMENT_SET_NO": 999, "REV_AT_EPOCH": 14067, "BSTAR": 0, "MEAN_MOTION_DOT": 1.01e-06, "MEAN_MOTION_DDOT": 0}, "tle": {"line1": "1 29486U 06042A   25347.54003387  .00000101  00000+0  00000+0 0  9992", "line2": "2 29486  54.6942 158.7089 0107345  51.9789 320.1395  2.00554149140679"}}, "geometry": {"type": "Point", "coordinates": [-35.06351498446069, 18.52174968136773]}}, {"type": "Feature", "properties": {"norad_id": 29601, "name": "GPS BIIRM-3 (PRN 12)", "group": "gps-ops", "lat": -27.55557267255066, "lon": 62.79839799577409, "alt_km": 20323.565683376575, "timestamp": "2025-12-14T05:42:18.718315+00:00", "meta": {"OBJECT_NAME": "GPS BIIRM-3 (PRN 12)", "OBJECT_ID": "2006-052A", "EPOCH": "2025-12-11T22:46:47.068032", "MEAN_MOTION": 2.00573524, "ECCENTRICITY": 0.00877389, "INCLINATION": 54.9707, "RA_OF_ASC_NODE": 221.4296, "ARG_OF_PERICENTER": 87.4221, "MEAN_ANOMALY": 273.6564, "EPHEMERIS_TYPE": 0, "CLASSIFICATION_TYPE": "U", "NORAD_CAT_ID": 29601, "ELEMENT_SET_NO": 999, "REV_AT_EPOCH": 13965, "BSTAR": 0, "MEAN_MOTION_DOT": 9e-08, "MEAN_MOTION_DDOT": 0}, "tle": {"line1": "1 29601U 06052A   25345.94915588  .00000009  00000+0  00000+0 0  9996", "line2": "2 29601  54.9707 221.4296 0087738  87.4221 273.6564  2.00573524139650"}}, "geometry": {"type": "Point", "coordinates": [62.79839799577409, -27.55557267255066]}}, {"type": "Feature", "properties": {"norad_id": 32260, "name": "GPS BIIRM-4 (PRN 15)", "group": "gps-ops", "lat": -6.7198976926921175, "lon": 82.77638373770992, "alt_km": 20203.01200127644, "timestamp": "2025-12-14T05:42:18.718327+00:00", "meta": {"OBJECT_NAME": "GPS BIIRM-4 (PRN 15)", "OBJECT_ID": "2007-047A", "EPOCH": "2025-12-13T06:02:59.943552", "MEAN_MOTION": 2.00564506, "ECCENTRICITY": 0.01641392, "INCLINATION": 53.9555, "RA_OF_ASC_NODE": 87.7372, "ARG_OF_PERICENTER": 85.2518, "MEAN_ANOMALY": 276.6128, "EPHEMERIS_TYPE": 0, "CLASSIFICATION_TYPE": "U", "NORAD_CAT_ID": 32260, "ELEMENT_SET_NO": 999, "REV_AT_EPOCH": 13308, "BSTAR": 0, "MEAN_MOTION_DOT": -3.9e-07, "MEAN_MOTION_DDOT": 0}, "tle": {"line1": "1 32260U 07047A   25347.25208268 -.00000039  00000+0  00000+0 0  9996", "line2": "2 32260  53.9555  87.7372 0164139  85.2518 276.6128  2.00564506133089"}}, "geometry": {"type": "Point", "coordinates": [82.77638373770992, -6.7198976926921175]}}]}